[{"OBJECT_NAME":"CE-SAT-IE","OBJECT_ID":"2024-032A","EPOCH":"2026-03-09T20:59:24.263232","MEAN_MOTION":14.68188526,"ECCENTRICITY":0.00036701,"INCLINATION":98.0095,"RA_OF_ASC_NODE":125.7334,"ARG_OF_PERICENTER":55.1646,"MEAN_ANOMALY":304.9904,"EPHEMERIS_TYPE":0,"CLASSIFICATION_TYPE":"U","NORAD_CAT_ID":58987,"ELEMENT_SET_NO":999,"REV_AT_EPOCH":11026,"BSTAR":0.00011964159,"MEAN_MOTION_DOT":6.41e-6,"MEAN_MOTION_DDOT":0},{"OBJECT_NAME":"CZ-6A DEB","OBJECT_ID":"2024-140NN","EPOCH":"2026-03-09T14:39:38.501856","MEAN_MOTION":14.56400901,"ECCENTRICITY":0.0096452,"INCLINATION":89.0516,"RA_OF_ASC_NODE":286.1841,"ARG_OF_PERICENTER":250.3431,"MEAN_ANOMALY":108.7351,"EPHEMERIS_TYPE":0,"CLASSIFICATION_TYPE":"U","NORAD_CAT_ID":61096,"ELEMENT_SET_NO":999,"REV_AT_EPOCH":8107,"BSTAR":0.00076072,"MEAN_MOTION_DOT":3.611e-5,"MEAN_MOTION_DDOT":0}]
